OBJECT_NAME,OBJECT_ID,EPOCH,MEAN_MOTION,ECCENTRICITY,INCLINATION,RA_OF_ASC_NODE,ARG_OF_PERICENTER,MEAN_ANOMALY,EPHEMERIS_TYPE,CLASSIFICATION_TYPE,NORAD_CAT_ID,ELEMENT_SET_NO,REV_AT_EPOCH,BSTAR,MEAN_MOTION_DOT,MEAN_MOTION_DDOT
SAUDISAT 1C (SO-50),2002-058C,2026-06-15T08:01:51.375360,14.83043230,.00753069,64.5510,134.7172,262.8143,96.4397,0,U,27607,999,26418,.11894541E-3,.861E-5,0
SAUDISAT 2,2004-025F,2026-06-15T22:19:06.069504,14.56683326,.00236369,98.5507,166.8793,302.2895,57.6012,0,U,28371,999,16556,.58496888E-4,.212E-5,0
SAUDISAT 3,2007-012B,2026-06-15T19:56:07.436832,14.71424913,.00135657,98.1456,117.2304,228.4341,131.5703,0,U,31118,999,2754,.43012713E-4,.216E-5,0
PISAT,2016-059B,2026-06-15T23:39:54.340704,14.68981716,.00282879,97.8179,167.4904,206.7001,153.2750,0,U,41784,999,51956,.13185866E-3,.73E-5,0
FLYING LAPTOP,2017-042G,2026-06-15T23:39:23.062176,15.01139202,.00195094,97.4677,322.5642,125.5678,234.7368,0,U,42831,999,48627,.23513179E-3,.2966E-4,0
SALSAT,2020-068K,2026-06-15T18:31:32.782944,15.29782498,.00081243,97.8844,169.7502,314.2855,45.7717,0,U,46495,999,31514,.23384968E-3,.6667E-4,0
